     3.03           N: GNSS NAV DATA    R: GLONASS          RINEX VERSION / TYPE
sbf2rin-13.0.1                          20181106 131954 UTC PGM / RUN BY / DATE 
    18                                                      LEAP SECONDS        
                                                            END OF HEADER       
R11 2018 09 12 15 45 00-4.064477980137E-05-0.000000000000E+00 3.150000000000E+05
     6.950992187500E+03-5.080299377441E-01-1.862645149231E-09 0.000000000000E+00
     2.257608300781E+04-1.231879234314E+00-9.313225746155E-10 0.000000000000E+00
     9.715900878906E+03 3.227814674377E+00-9.313225746155E-10 0.000000000000E+00
R09 2018 09 12 15 45 00 2.803187817335E-05 1.818989403546E-12 3.150000000000E+05
    -1.379842236328E+04-1.414722442627E+00-1.862645149231E-09 0.000000000000E+00
    -4.083537597656E+03-2.509284973145E+00 1.862645149231E-09-2.000000000000E+00
     2.106136572266E+04-1.421096801758E+00-1.862645149231E-09 0.000000000000E+00
R08 2018 09 12 15 45 00 2.134684473276E-05 0.000000000000E+00 3.150000000000E+05
    -5.857793945313E+03-7.762546539307E-01-3.725290298462E-09 0.000000000000E+00
     2.137708251953E+04 1.547502517700E+00 0.000000000000E+00 6.000000000000E+00
     1.267160742188E+04-2.981613159180E+00-9.313225746155E-10 0.000000000000E+00
R03 2018 09 12 15 45 00 1.430623233318E-04 9.094947017729E-13 3.150000000000E+05
     1.476951708984E+04-4.526920318604E-01 4.656612873077E-09 0.000000000000E+00
    -2.033809326172E+04 4.412574768066E-01-9.313225746155E-10 5.000000000000E+00
     4.512225097656E+03 3.496464729309E+00-9.313225746155E-10 0.000000000000E+00
